POEM-2                  
1 56308U 23057A   23141.23278857  .00002399  00000+0  18184-3 0  9999
2 56308   9.8878 101.8356 0024062 253.9053 105.8508 14.88344305  4303
LUMELITE-4              
1 56309U 23057B   23141.23452367  .00007126  00000+0  56819-3 0  9990
2 56309   9.9928  99.8252 0008207  39.8439 320.2376 14.95281307  4322
TELEOS-2                
1 56310U 23057C   23141.24423641  .00008711  00000+0  71414-3 0  9995
2 56310   9.9880  99.9171 0004196  32.1539 327.8930 14.94988893  4324
ARKSAT 1                
1 56311U 98067VC  23141.52004988  .00056415  00000+0  85650-3 0  9990
2 56311  51.6380 100.2337 0006995  13.8950 346.2232 15.54005569  4211
AURORASAT               
1 56312U 98067VD  23141.45524097  .00065190  00000+0  98155-3 0  9995
2 56312  51.6379 100.5505 0006689  13.4099 346.7068 15.54174432  4230
EX-ALTA-2               
1 56313U 98067VE  23141.26323521  .00061155  00000+0  92876-3 0  9995
2 56313  51.6376 101.5170 0006851  11.5661 348.5486 15.53963678  4198
LIGHTCUBE               
1 56314U 98067VF  23141.26400691  .00068547  00000+0  10341-2 0  9998
2 56314  51.6375 101.5223 0006476 354.7002   5.3919 15.54101025  4225
NEUDOSE                 
1 56315U 98067VG  23141.85109056  .00045081  00000+0  70837-3 0  9990
2 56315  51.6380  98.6917 0007180 355.2915   4.8007 15.53153047  4266
YUKONSAT                
1 56316U 98067VH  23141.91265637  .00058470  00000+0  90276-3 0  9991
2 56316  51.6382  98.3544 0006838 355.9010   4.1923 15.53528319  4295
STARLINK-6038           
1 56317U 23058A   23141.91667824 -.00146091  00000+0 -29307-2 0  9999
2 56317  97.6558 142.4354 0001099  90.7635 174.5754 15.47191664  1307
STARLINK-5954           
1 56318U 23058B   23141.93349387  .00000791  00000+0  17507-4 0  9998
2 56318  97.6558 142.4527 0000977 108.0800 252.0556 15.47144704  4275
STARLINK-6039           
1 56319U 23058C   23141.93327910 -.00000095  00000+0  22914-7 0  9996
2 56319  97.6564 142.4522 0000977 111.5186 248.6167 15.47148457  4272
STARLINK-5988           
1 56320U 23058D   23141.91667824  .00063375  00000+0  12435-2 0  9998
2 56320  97.6557 142.4361 0001087  88.3291 178.8201 15.47123534  1301
STARLINK-5876           
1 56321U 23058E   23141.91667824  .00069738  00000+0  13669-2 0  9998
2 56321  97.6557 142.4375 0001014  89.3714 180.7157 15.47126670  1304
STARLINK-6033           
1 56322U 23058F   23141.91667824  .00035035  00000+0  69042-3 0  9999
2 56322  97.6556 142.4355 0001160  95.5347 170.4270 15.47139039  1300
STARLINK-6035           
1 56323U 23058G   23141.91667824  .00053673  00000+0  10543-2 0  9999
2 56323  97.6557 142.4373 0001081  92.9772 176.5200 15.47135702  1300
STARLINK-6034           
1 56324U 23058H   23141.91667824  .00049930  00000+0  98141-3 0  9992
2 56324  97.6557 142.4366 0001083  92.0095 176.3113 15.47134796  1307
STARLINK-5981           
1 56325U 23058J   23141.93253880  .00002353  00000+0  48328-4 0  9999
2 56325  97.6558 142.4552 0001210  98.7060 261.4326 15.47148124  4623
STARLINK-5980           
1 56326U 23058K   23141.91667824  .00066666  00000+0  13072-2 0  9998
2 56326  97.6557 142.4369 0000973  93.8767 175.0313 15.47128934  1309
STARLINK-5997           
1 56327U 23058L   23141.91667824  .00052479  00000+0  10310-2 0  9998
2 56327  97.6556 142.4392 0001959  89.1720 184.4574 15.47135822  1304
STARLINK-5992           
1 56328U 23058M   23141.91667824  .00071140  00000+0  13941-2 0  9998
2 56328  97.6556 142.4380 0001174  98.4188 172.8486 15.47126760  1306
STARLINK-5984           
1 56329U 23058N   23141.91667824  .00072164  00000+0  14140-2 0  9998
2 56329  97.6557 142.4389 0001818  86.2445 186.7916 15.47124805  1303
STARLINK-5967           
1 56330U 23058P   23141.93275077  .00002378  00000+0  48822-4 0  9993
2 56330  97.6557 142.4536 0000958 101.0470 259.0886 15.47148143  4626
STARLINK-5991           
1 56331U 23058Q   23141.93190197  .00003102  00000+0  63083-4 0  9995
2 56331  97.6563 142.4555 0001095  92.8061 267.3314 15.47149956  4622
STARLINK-5093           
1 56332U 23058R   23141.91667824  .00072344  00000+0  14175-2 0  9990
2 56332  97.6556 142.4386 0001721  93.4030 179.0425 15.47124821  1304
STARLINK-5553           
1 56333U 23058S   23141.91667824  .00055485  00000+0  10897-2 0  9995
2 56333  97.6556 142.4403 0001233  90.0843 185.9105 15.47131998  1302
STARLINK-5548           
1 56334U 23058T   23141.93211535  .00010072  00000+0  20037-3 0  9993
2 56334  97.6560 142.4552 0001107  97.3995 262.7380 15.47152589  4627
STARLINK-5559           
1 56335U 23058U   23141.93147856  .00002489  00000+0  51016-4 0  9993
2 56335  97.6560 142.4556 0000968  87.5295 272.6065 15.47147716  4626
STARLINK-5562           
1 56336U 23058V   23141.91667824  .00045537  00000+0  89564-3 0  9993
2 56336  97.6556 142.4396 0001236  93.0640 181.7480 15.47137793  1306
STARLINK-5561           
1 56337U 23058W   23141.91667824  .00053264  00000+0  10465-2 0  9993
2 56337  97.6556 142.4414 0001097  95.7513 182.6058 15.47131118  1307
STARLINK-5554           
1 56338U 23058X   23141.91667824  .00061758  00000+0  12118-2 0  9998
2 56338  97.6556 142.4405 0001081  87.5803 189.0000 15.47130204  1305
STARLINK-5552           
1 56339U 23058Y   23141.91667824  .00058755  00000+0  11534-2 0  9993
2 56339  97.6556 142.4419 0001184  86.1958 193.3410 15.47130202  1302
STARLINK-5540           
1 56340U 23058Z   23141.91667824  .00049175  00000+0  96672-3 0  9998
2 56340  97.6557 142.4408 0001067  90.4743 186.7001 15.47134058  1308
STARLINK-5543           
1 56341U 23058AA  23141.91667824  .00073396  00000+0  14379-2 0  9994
2 56341  97.6556 142.4425 0001024  80.2985 200.4119 15.47125424  1306
STARLINK-5955           
1 56342U 23058AB  23141.93126686  .00002568  00000+0  52569-4 0  9991
2 56342  97.6565 142.4555 0000975 106.8703 253.2653 15.47146648  4626
STARLINK-5976           
1 56343U 23058AC  23141.93073685  .00001749  00000+0  36412-4 0  9991
2 56343  97.6560 142.4577 0001250  92.9918 267.1474 15.47146373  4626
STARLINK-5974           
1 56344U 23058AD  23141.91667824  .00046838  00000+0  92106-3 0  9993
2 56344  97.6557 142.4421 0001157  92.4362 187.6869 15.47136445  1300
STARLINK-5979           
1 56345U 23058AE  23141.93052846  .00005479  00000+0  10999-3 0  9994
2 56345  97.6565 142.4580 0000512  62.8526 297.2775 15.47139588  4626
STARLINK-5837           
1 56346U 23058AF  23141.91667824  .00072211  00000+0  14148-2 0  9998
2 56346  97.6556 142.4427 0001208  86.1624 195.1365 15.47127741  1309
STARLINK-5829           
1 56347U 23058AG  23141.93041862  .00002598  00000+0  53167-4 0  9996
2 56347  97.6575 142.4569 0001151  99.9477 260.1902 15.47147077  4625
STARLINK-5888           
1 56348U 23058AH  23141.93063156  .00001714  00000+0  35716-4 0  9996
2 56348  97.6562 142.4568 0001058 100.5389 259.5979 15.47147702  4629
STARLINK-5887           
1 56349U 23058AJ  23141.92999540  .00001685  00000+0  35145-4 0  9994
2 56349  97.6590 142.4586 0001170  98.4248 261.7133 15.47147356  4627
STARLINK-5886           
1 56350U 23058AK  23141.93020773  .00001905  00000+0  39494-4 0  9996
2 56350  97.6563 142.4579 0001150  93.9818 266.1562 15.47147788  4626
STARLINK-5891           
1 56351U 23058AL  23141.92988818  .00001992  00000+0  41192-4 0  9993
2 56351  97.6578 142.4576 0001188  96.8525 263.2859 15.47151116  4625
STARLINK-5885           
1 56352U 23058AM  23141.93031378 -.00000476  00000+0 -75002-5 0  9991
2 56352  97.6577 142.4578 0001096  93.4126 266.7249 15.47144192  4622
STARLINK-5874           
1 56353U 23058AN  23141.92893395  .00001921  00000+0  39809-4 0  9994
2 56353  97.6557 142.4604 0001122  98.8664 261.2712 15.47148178  4620
STARLINK-5877           
1 56354U 23058AP  23141.93010065  .00001538  00000+0  32249-4 0  9996
2 56354  97.6582 142.4582 0001213  90.0848 270.0540 15.47147791  4620
STARLINK-5533           
1 56355U 23058AQ  23141.92946338  .00003622  00000+0  73347-4 0  9997
2 56355  97.6558 142.4602 0001299  97.3956 262.7441 15.47149223  4621
STARLINK-5535           
1 56356U 23058AR  23141.92967682  .00001421  00000+0  29945-4 0  9993
2 56356  97.6566 142.4592 0001259  92.8362 267.3031 15.47147498  4624
STARLINK-5538           
1 56357U 23058AS  23141.92957057  .00000852  00000+0  18723-4 0  9998
2 56357  97.6584 142.4586 0001210  98.4346 261.7040 15.47146062  4623
STARLINK-5482           
1 56358U 23058AT  23141.92978274  .00001020  00000+0  22037-4 0  9994
2 56358  97.6574 142.4583 0001193  94.4698 265.6687 15.47146598  4620
STARLINK-5551           
1 56359U 23058AU  23141.92925292  .00001073  00000+0  23084-4 0  9998
2 56359  97.6569 142.4588 0001105  75.9647 284.1725 15.47147463  4622
STARLINK-5549           
1 56360U 23058AV  23141.92935808  .00001323  00000+0  28012-4 0  9998
2 56360  97.6584 142.4590 0001156  99.2761 260.8619 15.47147216  4625
STARLINK-5550           
1 56361U 23058AW  23141.92901011 -.00027460  00000+0 -54132-3 0  9991
2 56361  97.6581 142.4609 0000595 116.1688 243.9622 15.47179211  4623
STARLINK-5972           
1 56362U 23058AX  23141.92914719  .00001779  00000+0  36997-4 0  9994
2 56362  97.6559 142.4603 0001272  94.0059 266.1336 15.47147327  4624
FALCON 9 DEB            
1 56363U 23058AY  23141.94963211  .00331794  44428-4  89363-3 0  9992
2 56363  97.6701 143.4623 0035467 160.1189 200.1476 15.93194803  4343
FALCON 9 DEB            
1 56364U 23058AZ  23141.94177790  .00334699  45571-4  87478-3 0  9994
2 56364  97.6684 143.4665 0033449 158.6396 201.6283 15.93879559  4340
FALCON 9 DEB            
1 56365U 23058BA  23141.79337355  .00406197  69048-4  91994-3 0  9999
2 56365  97.6611 143.3382 0035633 155.1901 205.1098 15.96350539  4312
FALCON 9 DEB            
1 56366U 23058BB  23141.72856976  .00365240  55658-4  83959-3 0  9995
2 56366  97.6615 143.2697 0035292 152.9986 207.3136 15.96106157  4305
